[{"OBJECT_NAME":"STARLINK-36754","OBJECT_ID":"2026-026E","EPOCH":"2026-03-09T22:00:01.999584","MEAN_MOTION":15.47573266,"ECCENTRICITY":0.00014,"INCLINATION":97.2847,"RA_OF_ASC_NODE":123.4211,"ARG_OF_PERICENTER":67.9715,"MEAN_ANOMALY":323.3817,"EPHEMERIS_TYPE":0,"CLASSIFICATION_TYPE":"U","NORAD_CAT_ID":67725,"ELEMENT_SET_NO":999,"REV_AT_EPOCH":535,"BSTAR":-0.046489965,"MEAN_MOTION_DOT":-0.02120238,"MEAN_MOTION_DDOT":0},{"OBJECT_NAME":"KUIPER-00275","OBJECT_ID":"2026-030AF","EPOCH":"2026-03-09T17:04:44.260032","MEAN_MOTION":15.34756533,"ECCENTRICITY":0.0009337,"INCLINATION":51.8837,"RA_OF_ASC_NODE":219.2226,"ARG_OF_PERICENTER":52.8442,"MEAN_ANOMALY":307.3396,"EPHEMERIS_TYPE":0,"CLASSIFICATION_TYPE":"U","NORAD_CAT_ID":67793,"ELEMENT_SET_NO":999,"REV_AT_EPOCH":509,"BSTAR":0.00095700084,"MEAN_MOTION_DOT":0.00032535,"MEAN_MOTION_DDOT":0}]
