STARLINK-36754          
1 67725U 26026E   26068.91668981 -.02120238  00000+0 -46490-1 0  9996
2 67725  97.2847 123.4211 0001400  67.9715 323.3817 15.47573266  5356
KUIPER-00275            
1 67793U 26030AF  26068.71162338  .00032535  00000+0  95700-3 0  9997
2 67793  51.8837 219.2226 0009337  52.8442 307.3396 15.34756533  5094
